QIANFAN-1               
1 60379U 24140A   26007.83738728  .00000173  00000+0  24818-3 0  9993
2 60379  88.9779 296.5823 0018330 134.2967 225.9691 13.50984682 70879
QIANFAN-2               
1 60380U 24140B   26007.86629133  .00000182  00000+0  26306-3 0  9991
2 60380  88.9765 296.4151 0014284 107.1448 253.1268 13.50988569 70934
QIANFAN-3               
1 60381U 24140C   26007.80038750  .00000173  00000+0  24930-3 0  9996
2 60381  88.9757 296.5525 0015135 119.0547 241.2122 13.50989058 70830
QIANFAN-4               
1 60382U 24140D   26007.84970813  .00000174  00000+0  25076-3 0  9999
2 60382  88.9783 296.4517 0014463 109.6189 250.6524 13.50984763 70962
QIANFAN-5               
1 60383U 24140E   26007.82512458  .00000184  00000+0  26658-3 0  9993
2 60383  88.9757 296.5754 0016121 129.9209 230.3361 13.50986789 70828
QIANFAN-6               
1 60384U 24140F   26007.84570358  .00000166  00000+0  23768-3 0  9998
2 60384  88.9784 296.3265 0014463 115.0611 245.2043 13.50987024 71022
QIANFAN-7               
1 60385U 24140G   26007.81774501  .00000871  00000+0  34717-3 0  9991
2 60385  88.9796 290.6619 0014047 323.3190  36.7042 14.27697770 74116
QIANFAN-8               
1 60386U 24140H   26007.85399222  .00000177  00000+0  25438-3 0  9998
2 60386  88.9786 296.5635 0017864 118.1176 242.1783 13.50988430 70878
